OBJECT_NAME,OBJECT_ID,EPOCH,MEAN_MOTION,ECCENTRICITY,INCLINATION,RA_OF_ASC_NODE,ARG_OF_PERICENTER,MEAN_ANOMALY,EPHEMERIS_TYPE,CLASSIFICATION_TYPE,NORAD_CAT_ID,ELEMENT_SET_NO,REV_AT_EPOCH,BSTAR,MEAN_MOTION_DOT,MEAN_MOTION_DDOT,SEMIMAJOR_AXIS,DEBRIS_TYPE,ORBITAL_PERIOD,ORBITAL_PERIOD_HOURS,ALTITUDE,PERIGEE,APOGEE
FENGYUN 1C DEB,1999-025ABP,2024-12-31T08:03:42.262848,14.07241615,0.0028241,98.7954,31.1859,211.8186,159.9886,0,U,30352,999,92038,0.00048903,7.8e-06,0.0,7246.96329345781,FENGYUN 1C,6139.674023353383,1.7054650064870507,875.9632934578103,7226.497144420756,7267.429442494865
FENGYUN 1C DEB,1999-025ABS,2024-12-31T19:24:23.597280,14.17410647,0.0054212,98.5928,16.1926,225.2816,308.8152,0,U,30355,999,92447,0.0019963,4.061e-05,0.0,7212.260105311059,FENGYUN 1C,6095.625714738519,1.693229365205144,841.2601053110593,7173.161000828147,7251.359209793972
FENGYUN 1C DEB,1999-025ABT,2024-12-31T17:02:31.852896,14.11818349,0.0053115,98.6681,6.8795,194.0232,226.3406,0,U,30356,999,92136,0.0020321,3.716e-05,0.0,7231.293020123116,FENGYUN 1C,6119.770857431576,1.699936349286549,860.2930201231156,7192.884007246732,7269.702032999499
FENGYUN 1C DEB,1999-025ABU,2024-12-31T21:09:35.512992,14.0503749,0.0049068,98.8448,37.4116,217.1919,317.1189,0,U,30357,999,91949,0.00033946,5.09e-06,0.0,7254.540334267292,FENGYUN 1C,6149.305516536333,1.7081404212600926,883.5403342672917,7218.943755755109,7290.136912779475
FENGYUN 1C DEB,1999-025ABV,2024-12-31T12:45:13.384224,14.17516912,0.0085491,98.5672,201.123,119.1834,268.1788,0,U,30358,999,92007,0.0043427,9.104e-05,0.0,7211.899653223017,FENGYUN 1C,6095.168752524459,1.6931024312567942,840.8996532230167,7150.244401897648,7273.554904548386
FENGYUN 1C DEB,1999-025ABW,2024-12-31T18:03:48.861504,13.91090903,0.0155501,101.625,99.0786,126.3279,235.2341,0,U,30359,999,90253,0.0073719,0.00010172,0.0,7302.947315839676,FENGYUN 1C,6210.956285864922,1.7252656349624784,931.9473158396759,7189.385754783637,7416.508876895715
FENGYUN 1C DEB,1999-025ABX,2024-12-31T16:18:54.008928,14.23171355,0.0031397,98.7886,70.3875,69.9383,83.294,0,U,30360,999,92496,0.0040521,9.169e-05,0.0,7192.784444215101,FENGYUN 1C,6070.951862432168,1.686375517342269,821.7844442151008,7170.201258895599,7215.367629534603
FENGYUN 1C DEB,1999-025ABY,2024-12-31T01:32:51.288864,14.23141222,0.0066486,98.5991,43.8979,319.0889,40.5311,0,U,30361,999,92681,0.0024268,5.566e-05,0.0,7192.885975206522,FENGYUN 1C,6071.0804062405,1.6864112239556945,821.8859752065218,7145.063353511764,7240.708596901279
FENGYUN 1C DEB,1999-025ABZ,2024-12-31T17:30:10.668960,14.07948402,0.0097516,99.0497,281.5472,234.9823,124.2165,0,U,30362,999,91292,0.0059195,0.00010471,0.0,7244.537784077201,FENGYUN 1C,6136.591920502326,1.7046088668062016,873.5377840772007,7173.891949421994,7315.183618732408
FENGYUN 1C DEB,1999-025ACA,2024-12-30T15:17:18.281760,14.140199,0.0082322,99.0547,65.8829,301.8777,57.4403,0,U,30363,999,91913,0.0045211,8.839e-05,0.0,7223.785254803214,FENGYUN 1C,6110.242711716688,1.6972896421435244,852.7852548032142,7164.317609828623,7283.2528997778045
FENGYUN 1C DEB,1999-025ACB,2024-12-28T07:34:47.535744,14.09657468,0.0355986,98.1262,304.4386,255.0117,262.7262,0,U,30364,999,90704,0.0057738,0.00018269,0.0,7238.681091130841,FENGYUN 1C,6129.151928273516,1.7025422022981989,867.6810911308412,6980.994178440111,7496.368003821571
FENGYUN 1C DEB,1999-025ACC,2024-12-31T23:07:48.565056,14.18581505,0.01691,98.6045,4.9648,29.6813,0.0294,0,U,30365,999,92709,0.00096791,2.267e-05,0.0,7208.291025641796,FENGYUN 1C,6090.594553604702,1.6918318204457505,837.2910256417963,7086.398824398194,7330.183226885399
FENGYUN 1C DEB,1999-025ACD,2024-12-30T16:16:56.407296,14.31977577,0.0064391,98.9326,266.8633,153.1616,237.5395,0,U,30366,999,93353,0.0015809,4.294e-05,0.0,7163.265194166143,FENGYUN 1C,6033.617374301498,1.6760048261948606,792.2651941661434,7117.140213254388,7209.390175077898
FENGYUN 1C DEB,1999-025ACF,2024-12-31T18:31:18.890688,13.75029713,0.0189077,99.1651,119.6116,140.0419,16.8562,0,U,30368,999,89906,0.0010119,1.06e-05,0.0,7359.705777783884,FENGYUN 1C,6283.504062866285,1.7454177952406347,988.7057777838836,7220.55066884928,7498.860886718488
FENGYUN 1C DEB,1999-025ACG,2024-12-31T18:30:03.987072,14.11618746,0.0101026,98.7117,7.7635,99.3097,73.7252,0,U,30369,999,92364,0.00060726,1.116e-05,0.0,7231.974674321445,FENGYUN 1C,6120.636193504731,1.7001767204179807,860.9746743214446,7158.912926976645,7305.036421666244
FENGYUN 1C DEB,1999-025ACH,2024-12-31T02:31:32.232288,14.16948562,0.0103387,99.0852,48.5109,222.2093,164.3626,0,U,30370,999,92181,0.0036038,7.585e-05,0.0,7213.828026776615,FENGYUN 1C,6097.613576037041,1.693781548899178,842.8280267766149,7139.246422956179,7288.40963059705
FENGYUN 1C DEB,1999-025ACJ,2024-12-31T14:45:51.102720,14.27809371,0.0007589,98.6077,48.6088,267.4269,260.5723,0,U,30371,999,92973,0.0032065,7.892e-05,0.0,7177.199573635686,FENGYUN 1C,6051.231322390138,1.6808975895528162,806.1995736356857,7171.752796879254,7182.646350392117
FENGYUN 1C DEB,1999-025ACM,2024-12-31T18:53:15.194688,14.54237925,0.0044758,99.2931,184.1882,130.9355,241.6502,0,U,30374,999,93881,0.0057193,0.00024588,0.0,7089.977610496482,FENGYUN 1C,5941.259431944304,1.650349842206751,718.9776104964822,7058.244288707422,7121.710932285542
FENGYUN 1C DEB,1999-025ACQ,2024-12-31T13:00:01.728288,13.98659601,0.0119696,98.9232,29.5991,144.4389,10.8149,0,U,30377,999,91366,0.0011098,1.653e-05,0.0,7276.577414082385,FENGYUN 1C,6177.346355053092,1.7159295430703034,905.5774140823851,7189.479693066784,7363.675135097986
FENGYUN 1C DEB,1999-025ACS,2024-12-31T20:29:07.076832,14.07535453,0.0036825,98.7797,25.5489,172.7208,0.8777,0,U,30379,999,91950,0.00080071,1.316e-05,0.0,7245.954671239039,FENGYUN 1C,6138.39230108356,1.705108972523211,874.9546712390393,7219.271443162202,7272.637899315877
FENGYUN 1C DEB,1999-025ACT,2024-12-31T13:01:00.312672,14.49380029,0.0181394,98.9535,27.075,178.1649,182.0248,0,U,30380,999,94562,0.00079363,3.686e-05,0.0,7105.811121685579,FENGYUN 1C,5961.172787897826,1.6558813299716184,734.8111216855787,6976.915971424875,7234.706271946281
